*******************************************************************************
JPL/HORIZONS                3987 Wujek (1986 EL1)          2023-Sep-04 11:26:39
Rec #:    3987 (+COV) Soln.date: 2023-Aug-23_15:11:30   # obs: 3840 (1969-2023)
 
IAU76/J2000 helio. ecliptic osc. elements (au, days, deg., period=Julian yrs):
 
  EPOCH=  2457434.5 ! 2016-Feb-16.00 (TDB)         Residual RMS= .28214
   EC= .1185869970745523   QR= 2.408553890094328   TP= 2457154.412296399
   OM= 48.52411388636668   W=  307.2329639907828   IN= 4.828316763336631
   A= 2.732605353109421    MA= 61.11287913849156   ADIST= 3.056656816124514
   PER= 4.51724            N= .218191939           ANGMOM= .028235437
   DAN= 2.51381            DDN= 2.90243            L= 355.8552455
   B= -3.8425501           MOID= 1.40749002        TP= 2015-May-11.9122963990
 
Asteroid physical parameters (km, seconds, rotational period in hours):
   GM= n.a.                RAD= 6.8685             ROTPER= 8.037
   H= 12.34                G= .150                 B-V= n.a.
                           ALBEDO= .148            STYP= n.a.

ASTEROID comments: 
1: soln ref.= JPL#49, OCC=0
2: source=ORB
*******************************************************************************


*******************************************************************************
Ephemeris / API_USER Mon Sep  4 11:26:39 2023 Pasadena, USA      / Horizons
*******************************************************************************
Target body name: 3987 Wujek (1986 EL1)           {source: JPL#49}
Center body name: Solar System Barycenter (0)     {source: DE441}
Center-site name: BODY CENTER
*******************************************************************************
Start time      : A.D. 2023-Aug-12 00:00:00.0000 TDB
Stop  time      : A.D. 2023-Aug-13 00:00:00.0000 TDB
Step-size       : 2880 minutes
*******************************************************************************
Center geodetic : 0.0, 0.0, 0.0                   {E-lon(deg),Lat(deg),Alt(km)}
Center cylindric: 0.0, 0.0, 0.0                   {E-lon(deg),Dxy(km),Dz(km)}
Center radii    : (undefined)
Small perturbers: Yes                             {source: SB441-N16}
Output units    : KM-S
Calendar mode   : Mixed Julian/Gregorian
Output type     : GEOMETRIC cartesian states
Output format   : 2 (position and velocity)
Reference frame : Ecliptic of J2000.0
*******************************************************************************
Initial IAU76/J2000 heliocentric ecliptic osculating elements (au, days, deg.):
  EPOCH=  2457434.5 ! 2016-Feb-16.00 (TDB)         Residual RMS= .28214        
   EC= .1185869970745523   QR= 2.408553890094328   TP= 2457154.412296399       
   OM= 48.52411388636668   W=  307.2329639907828   IN= 4.828316763336631       
  Equivalent ICRF heliocentric cartesian coordinates (au, au/d):
   X= 9.125470824606400E-01  Y= 2.208995343413179E+00  Z= 1.043665515451311E+00
  VX=-9.701454084253132E-03 VY= 4.117048060208286E-03 VZ= 2.751224086441337E-03
Asteroid physical parameters (km, seconds, rotational period in hours):        
   GM= n.a.                RAD= 6.8685             ROTPER= 8.037               
   H= 12.34                G= .150                 B-V= n.a.                   
                           ALBEDO= .148            STYP= n.a.                  
*******************************************************************************
JDTDB
   X     Y     Z
   VX    VY    VZ
*******************************************************************************
$$SOE
2460168.500000000 = A.D. 2023-Aug-12 00:00:00.0000 TDB 
 X = 6.670493279963639E+07 Y =-3.863456460884020E+08 Z =-2.586808871790263E+07
 VX= 1.795356236602733E+01 VY= 5.297701197321596E+00 VZ=-8.370640734505277E-01
$$EOE
*******************************************************************************
 
TIME

  Barycentric Dynamical Time ("TDB" or T_eph) output was requested. This
continuous coordinate time is equivalent to the relativistic proper time
of a clock at rest in a reference frame co-moving with the solar system
barycenter but outside the system's gravity well. It is the independent
variable in the solar system relativistic equations of motion.

  TDB runs at a uniform rate of one SI second per second and is independent
of irregularities in Earth's rotation.
 
CALENDAR SYSTEM

  Mixed calendar mode was active such that calendar dates after AD 1582-Oct-15
(if any) are in the modern Gregorian system. Dates prior to 1582-Oct-5 (if any)
are in the Julian calendar system, which is automatically extended for dates
prior to its adoption on 45-Jan-1 BC.  The Julian calendar is useful for
matching historical dates. The Gregorian calendar more accurately corresponds
to the Earth's orbital motion and seasons. A "Gregorian-only" calendar mode is
available if such physical events are the primary interest.

REFERENCE FRAME AND COORDINATES

  Ecliptic at the standard reference epoch

    Reference epoch: J2000.0
    X-Y plane: adopted Earth orbital plane at the reference epoch
               Note: IAU76 obliquity of 84381.448 arcseconds wrt ICRF X-Y plane
    X-axis   : ICRF
    Z-axis   : perpendicular to the X-Y plane in the directional (+ or -) sense
               of Earth's north pole at the reference epoch.

  Symbol meaning:

    JDTDB    Julian Day Number, Barycentric Dynamical Time
      X      X-component of position vector (km)
      Y      Y-component of position vector (km)
      Z      Z-component of position vector (km)
      VX     X-component of velocity vector (km/sec)                           
      VY     Y-component of velocity vector (km/sec)                           
      VZ     Z-component of velocity vector (km/sec)                           

ABERRATIONS AND CORRECTIONS

 Geometric state vectors have NO corrections or aberrations applied.

Computations by ...

    Solar System Dynamics Group, Horizons On-Line Ephemeris System
    4800 Oak Grove Drive, Jet Propulsion Laboratory
    Pasadena, CA  91109   USA

    General site: https://ssd.jpl.nasa.gov/
    Mailing list: https://ssd.jpl.nasa.gov/email_list.html
    System news : https://ssd.jpl.nasa.gov/horizons/news.html
    User Guide  : https://ssd.jpl.nasa.gov/horizons/manual.html
    Connect     : browser        https://ssd.jpl.nasa.gov/horizons/app.html#/x
                  API            https://ssd-api.jpl.nasa.gov/doc/horizons.html
                  command-line   telnet ssd.jpl.nasa.gov 6775
                  e-mail/batch   https://ssd.jpl.nasa.gov/ftp/ssd/hrzn_batch.txt
                  scripts        https://ssd.jpl.nasa.gov/ftp/ssd/SCRIPTS
    Author      : Jon.D.Giorgini@jpl.nasa.gov
*******************************************************************************
